{"type": "FeatureCollection", "features": [ {"type": "Feature", "properties": {"norad_id": 66517, "name": "STARLINK-35937", "group": "last-30-days", "lat": 38.72527392280391, "lon": 94.63422163828896, "alt_km": 409.23963867696966, "timestamp": "2025-12-15T22:44:27.659371+00:00", "meta": {"OBJECT_NAME": "STARLINK-35937", "OBJECT_ID": "2025-265B", "EPOCH": "2025-12-15T03:54:17.613504", "MEAN_MOTION": 15.50622201, "ECCENTRICITY": 0.00015724, "INCLINATION": 42.9993, "RA_OF_ASC_NODE": 39.8491, "ARG_OF_PERICENTER": 285.2021, "MEAN_ANOMALY": 74.8665, "EPHEMERIS_TYPE": 0, "CLASSIFICATION_TYPE": "U", "NORAD_CAT_ID": 66517, "ELEMENT_SET_NO": 999, "REV_AT_EPOCH": 413, "BSTAR": 0.00097533791, "MEAN_MOTION_DOT": 0.00057386, "MEAN_MOTION_DDOT": 0}, "tle": {"line1": "1 66517U 25265B   25349.16270386  .00057386  00000+0  97534-3 0  9990", "line2": "2 66517  42.9993  39.8491 0001572 285.2021  74.8665 15.50622201  4130"}}, "geometry": {"type": "Point", "coordinates": [94.63422163828896, 38.72527392280391]}}, {"type": "Feature", "properties": {"norad_id": 66518, "name": "STARLINK-35962", "group": "last-30-days", "lat": 38.99705612476502, "lon": 95.5798858259914, "alt_km": 408.48390924437535, "timestamp": "2025-12-15T22:44:27.659382+00:00", "meta": {"OBJECT_NAME": "STARLINK-35962", "OBJECT_ID": "2025-265C", "EPOCH": "2025-12-14T10:53:57.808320", "MEAN_MOTION": 15.50609594, "ECCENTRICITY": 0.00017695, "INCLINATION": 43.0014, "RA_OF_ASC_NODE": 43.9914, "ARG_OF_PERICENTER": 290.7607, "MEAN_ANOMALY": 69.3063, "EPHEMERIS_TYPE": 0, "CLASSIFICATION_TYPE": "U", "NORAD_CAT_ID": 66518, "ELEMENT_SET_NO": 999, "REV_AT_EPOCH": 402, "BSTAR": 0.0018445082, "MEAN_MOTION_DOT": 0.00109513, "MEAN_MOTION_DDOT": 0}, "tle": {"line1": "1 66518U 25265C   25348.45414130  .00109513  00000+0  18445-2 0  9992", "line2": "2 66518  43.0014  43.9914 0001769 290.7607  69.3063 15.50609594  4021"}}, "geometry": {"type": "Point", "coordinates": [95.5798858259914, 38.99705612476502]}}, {"type": "Feature", "properties": {"norad_id": 66519, "name": "STARLINK-35931", "group": "last-30-days", "lat": 40.04324753949268, "lon": 99.64224631601466, "alt_km": 409.3894493546095, "timestamp": "2025-12-15T22:44:27.659394+00:00", "meta": {"OBJECT_NAME": "STARLINK-35931", "OBJECT_ID": "2025-265D", "EPOCH": "2025-12-14T10:52:58.169856", "MEAN_MOTION": 15.50575413, "ECCENTRICITY": 0.00026869, "INCLINATION": 43.0006, "RA_OF_ASC_NODE": 43.985, "ARG_OF_PERICENTER": 285.698, "MEAN_ANOMALY": 74.3584, "EPHEMERIS_TYPE": 0, "CLASSIFICATION_TYPE": "U", "NORAD_CAT_ID": 66519, "ELEMENT_SET_NO": 999, "REV_AT_EPOCH": 402, "BSTAR": 0.0010807878, "MEAN_MOTION_DOT": 0.00063576, "MEAN_MOTION_DDOT": 0}, "tle": {"line1": "1 66519U 25265D   25348.45345104  .00063576  00000+0  10808-2 0  9990", "line2": "2 66519  43.0006  43.9850 0002686 285.6980  74.3584 15.50575413  4024"}}, "geometry": {"type": "Point", "coordinates": [99.64224631601466, 40.04324753949268]}}, {"type": "Feature", "properties": {"norad_id": 66520, "name": "STARLINK-35952", "group": "last-30-days", "lat": -25.52681305420622, "lon": 4.684576117912147, "alt_km": 445.9077494010635, "timestamp": "2025-12-15T22:44:27.659429+00:00", "meta": {"OBJECT_NAME": "STARLINK-35952", "OBJECT_ID": "2025-265E", "EPOCH": "2025-12-15T08:00:01.999872", "MEAN_MOTION": 15.40702875, "ECCENTRICITY": 9.313e-05, "INCLINATION": 43.0002, "RA_OF_ASC_NODE": 39.0532, "ARG_OF_PERICENTER": 282.2485, "MEAN_ANOMALY": 227.9599, "EPHEMERIS_TYPE": 0, "CLASSIFICATION_TYPE": "U", "NORAD_CAT_ID": 66520, "ELEMENT_SET_NO": 999, "REV_AT_EPOCH": 541, "BSTAR": 9.550252e-06, "MEAN_MOTION_DOT": 9.6e-07, "MEAN_MOTION_DDOT": 0}, "tle": {"line1": "1 66520U 25265E   25349.33335648  .00000096  00000+0  95503-5 0  9998", "line2": "2 66520  43.0002  39.0532 0000931 282.2485 227.9599 15.40702875  5418"}}, "geometry": {"type": "Point", "coordinates": [4.684576117912147, -25.52681305420622]}}, {"type": "Feature", "properties": {"norad_id": 66521, "name": "STARLINK-35915", "group": "last-30-days", "lat": 41.183684150303584, "lon": 105.11465213434921, "alt_km": 408.8887710867539, "timestamp": "2025-12-15T22:44:27.659441+00:00", "meta": {"OBJECT_NAME": "STARLINK-35915", "OBJECT_ID": "2025-265F", "EPOCH": "2025-12-14T04:40:58.207296", "MEAN_MOTION": 15.50527356, "ECCENTRICITY": 0.0002411, "INCLINATION": 42.9978, "RA_OF_ASC_NODE": 45.4873, "ARG_OF_PERICENTER": 258.1159, "MEAN_ANOMALY": 101.9431, "EPHEMERIS_TYPE": 0, "CLASSIFICATION_TYPE": "U", "NORAD_CAT_ID": 66521, "ELEMENT_SET_NO": 999, "REV_AT_EPOCH": 398, "BSTAR": 0.0021069432, "MEAN_MOTION_DOT": 0.0012503, "MEAN_MOTION_DDOT": 0}, "tle": {"line1": "1 66521U 25265F   25348.19511814  .00125030  00000+0  21069-2 0  9992", "line2": "2 66521  42.9978  45.4873 0002411 258.1159 101.9431 15.50527356  3989"}}, "geometry": {"type": "Point", "coordinates": [105.11465213434921, 41.183684150303584]}}, {"type": "Feature", "properties": {"norad_id": 66522, "name": "STARLINK-35946", "group": "last-30-days", "lat": 41.46282397392948, "lon": 106.69356951721603, "alt_km": 409.49955357807175, "timestamp": "2025-12-15T22:44:27.659451+00:00", "meta": {"OBJECT_NAME": "STARLINK-35946", "OBJECT_ID": "2025-265G", "EPOCH": "2025-12-15T03:51:49.411584", "MEAN_MOTION": 15.50620005, "ECCENTRICITY": 0.00025386, "INCLINATION": 43.0023, "RA_OF_ASC_NODE": 39.8338, "ARG_OF_PERICENTER": 276.134, "MEAN_ANOMALY": 83.9231, "EPHEMERIS_TYPE": 0, "CLASSIFICATION_TYPE": "U", "NORAD_CAT_ID": 66522, "ELEMENT_SET_NO": 999, "REV_AT_EPOCH": 413, "BSTAR": 0.0013592146, "MEAN_MOTION_DOT": 0.00080341, "MEAN_MOTION_DDOT": 0}, "tle": {"line1": "1 66522U 25265G   25349.16098856  .00080341  00000+0  13592-2 0  9994", "line2": "2 66522  43.0023  39.8338 0002538 276.1340  83.9231 15.50620005  4138"}}, "geometry": {"type": "Point", "coordinates": [106.69356951721603, 41.46282397392948]}}, {"type": "Feature", "properties": {"norad_id": 66523, "name": "STARLINK-35969", "group": "last-30-days", "lat": 41.84133131758116, "lon": 109.1642931448388, "alt_km": 409.61754202390057, "timestamp": "2025-12-15T22:44:27.659461+00:00", "meta": {"OBJECT_NAME": "STARLINK-35969", "OBJECT_ID": "2025-265H", "EPOCH": "2025-12-15T03:51:19.602720", "MEAN_MOTION": 15.50616312, "ECCENTRICITY": 0.00035212, "INCLINATION": 42.9978, "RA_OF_ASC_NODE": 39.831, "ARG_OF_PERICENTER": 299.9659, "MEAN_ANOMALY": 60.0851, "EPHEMERIS_TYPE": 0, "CLASSIFICATION_TYPE": "U", "NORAD_CAT_ID": 66523, "ELEMENT_SET_NO": 999, "REV_AT_EPOCH": 413, "BSTAR": 0.0010201167, "MEAN_MOTION_DOT": 0.00060054, "MEAN_MOTION_DDOT": 0}, "tle": {"line1": "1 66523U 25265H   25349.16064355  .00060054  00000+0  10201-2 0  9995", "line2": "2 66523  42.9978  39.8310 0003521 299.9659  60.0851 15.50616312  4135"}}, "geometry": {"type": "Point", "coordinates": [109.1642931448388, 41.84133131758116]}}, {"type": "Feature", "properties": {"norad_id": 66524, "name": "STARLINK-35687", "group": "last-30-days", "lat": -37.815196978090384, "lon": -20.81952480017627, "alt_km": 446.28081981508603, "timestamp": "2025-12-15T22:44:27.659471+00:00", "meta": {"OBJECT_NAME": "STARLINK-35687", "OBJECT_ID": "2025-265J", "EPOCH": "2025-12-15T08:00:01.999872", "MEAN_MOTION": 15.40697911, "ECCENTRICITY": 0.0001467, "INCLINATION": 43.0005, "RA_OF_ASC_NODE": 39.1128, "ARG_OF_PERICENTER": 268.2383, "MEAN_ANOMALY": 217.0869, "EPHEMERIS_TYPE": 0, "CLASSIFICATION_TYPE": "U", "NORAD_CAT_ID": 66524, "ELEMENT_SET_NO": 999, "REV_AT_EPOCH": 541, "BSTAR": -4.43185e-06, "MEAN_MOTION_DOT": -4.89e-06, "MEAN_MOTION_DDOT": 0}, "tle": {"line1": "1 66524U 25265J   25349.33335648 -.00000489  00000+0 -44318-5 0  9998", "line2": "2 66524  43.0005  39.1128 0001467 268.2383 217.0869 15.40697911  5417"}}, "geometry": {"type": "Point", "coordinates": [-20.81952480017627, -37.815196978090384]}}, {"type": "Feature", "properties": {"norad_id": 66525, "name": "STARLINK-35975", "group": "last-30-days", "lat": -9.71816270298652, "lon": 24.862002171106273, "alt_km": 444.4597025611347, "timestamp": "2025-12-15T22:44:27.659481+00:00", "meta": {"OBJECT_NAME": "STARLINK-35975", "OBJECT_ID": "2025-265K", "EPOCH": "2025-12-15T08:00:01.999872", "MEAN_MOTION": 15.40690627, "ECCENTRICITY": 0.0001141, "INCLINATION": 43.0003, "RA_OF_ASC_NODE": 38.9922, "ARG_OF_PERICENTER": 296.2562, "MEAN_ANOMALY": 238.8583, "EPHEMERIS_TYPE": 0, "CLASSIFICATION_TYPE": "U", "NORAD_CAT_ID": 66525, "ELEMENT_SET_NO": 999, "REV_AT_EPOCH": 541, "BSTAR": 5.8803927e-05, "MEAN_MOTION_DOT": 2.153e-05, "MEAN_MOTION_DDOT": 0}, "tle": {"line1": "1 66525U 25265K   25349.33335648  .00002153  00000+0  58804-4 0  9991", "line2": "2 66525  43.0003  38.9922 0001141 296.2562 238.8583 15.40690627  5415"}}, "geometry": {"type": "Point", "coordinates": [24.862002171106273, -9.71816270298652]}}, {"type": "Feature", "properties": {"norad_id": 66526, "name": "STARLINK-35932", "group": "last-30-days", "lat": 42.7779608511216, "lon": 118.40630371696, "alt_km": 407.77935617514686, "timestamp": "2025-12-15T22:44:27.659491+00:00", "meta": {"OBJECT_NAME": "STARLINK-35932", "OBJECT_ID": "2025-265L", "EPOCH": "2025-12-14T10:49:31.784448", "MEAN_MOTION": 15.50621032, "ECCENTRICITY": 0.00017397, "INCLINATION": 43.0001, "RA_OF_ASC_NODE": 43.9653, "ARG_OF_PERICENTER": 227.2965, "MEAN_ANOMALY": 132.7749, "EPHEMERIS_TYPE": 0, "CLASSIFICATION_TYPE": "U", "NORAD_CAT_ID": 66526, "ELEMENT_SET_NO": 999, "REV_AT_EPOCH": 402, "BSTAR": 0.0026007534, "MEAN_MOTION_DOT": 0.00155535, "MEAN_MOTION_DDOT": 0}, "tle": {"line1": "1 66526U 25265L   25348.45106232  .00155535  00000+0  26008-2 0  9991", "line2": "2 66526  43.0001  43.9653 0001739 227.2965 132.7749 15.50621032  4022"}}, "geometry": {"type": "Point", "coordinates": [118.40630371696, 42.7779608511216]}}]}